CCSDS_OEM_VERS = 1.0
CREATION_DATE  = 2017-05-11T11:13:07
ORIGINATOR     = GMAT USER

META_START
OBJECT_NAME          = MOPSSat_alt_35785_km_RAAN_90_038
OBJECT_ID            = SatId
CENTER_NAME          = Earth
REF_FRAME            = EME2000
TIME_SYSTEM          = UTC
START_TIME           = 2017-01-01T00:00:00.000
USEABLE_START_TIME   = 2017-01-01T00:00:00.000
USEABLE_STOP_TIME    = 2017-01-02T00:00:00.000
STOP_TIME            = 2017-01-02T00:00:00.000
INTERPOLATION        = Lagrange
INTERPOLATION_DEGREE = 7 
META_STOP


                                                                                   

2017-01-01T19:05:50.000   4.010784386565674e+04   1.251726918609038e+04  -3.510447545424594e+03  -9.091096828037254e-01   2.936209979952066e+00   7.953129788607805e-02
2017-01-01T19:06:00.000   4.009874210418249e+04   1.254662795381391e+04  -3.509651298998590e+03  -9.112425669014186e-01   2.935543419800948e+00   7.971798336933177e-02
2017-01-01T19:06:10.000   4.008961901620519e+04   1.257598004841079e+04  -3.508853185922165e+03  -9.133749660058660e-01   2.934875298557285e+00   7.990462644742077e-02
2017-01-01T19:06:20.000   4.008047460657464e+04   1.260532545428692e+04  -3.508053206619359e+03  -9.155068789843325e-01   2.934205616576588e+00   8.009122702119346e-02
2017-01-01T19:06:30.000   4.007130888015733e+04   1.263466415583657e+04  -3.507251361515673e+03  -9.176383047032417e-01   2.933534374215582e+00   8.027778499142452e-02
2017-01-01T19:06:40.000   4.006212184183529e+04   1.266399613744205e+04  -3.506447651037969e+03  -9.197692420281462e-01   2.932861571832131e+00   8.046430025881238e-02
2017-01-01T19:06:50.000   4.005291349659724e+04   1.269332138319258e+04  -3.505642075622440e+03  -9.218996898033082e-01   2.932187209791916e+00   8.065077272219183e-02
2017-01-01T19:07:00.000   4.004368384941694e+04   1.272263987726329e+04  -3.504834635703975e+03  -9.240296468792312e-01   2.931511288459512e+00   8.083720228094407e-02
2017-01-01T19:07:10.000   4.003443290530067e+04   1.275195160376583e+04  -3.504025331720303e+03  -9.261591121018088e-01   2.930833808201886e+00   8.102358883404680e-02
2017-01-01T19:07:20.000   4.002516066907875e+04   1.278125654740990e+04  -3.503214164093770e+03  -9.282880843603828e-01   2.930154769373108e+00   8.120993228428022e-02
2017-01-01T19:07:30.000   4.001586714561379e+04   1.281055469284167e+04  -3.502401133249537e+03  -9.304165625396773e-01   2.929474172329620e+00   8.139623253402078e-02
2017-01-01T19:07:40.000   4.000655233975412e+04   1.283984602479346e+04  -3.501586239611520e+03  -9.325445455306798e-01   2.928792017426812e+00   8.158248948619287e-02
2017-01-01T19:07:50.000   3.999721625645137e+04   1.286913052770349e+04  -3.500769483612674e+03  -9.346720322030104e-01   2.928108305027639e+00   8.176870304185054e-02
2017-01-01T19:08:00.000   3.998785890067393e+04   1.289840818599847e+04  -3.499950865687419e+03  -9.367990214254546e-01   2.927423035496287e+00   8.195487310197488e-02
2017-01-01T19:08:10.000   3.997848027740586e+04   1.292767898409327e+04  -3.499130386271546e+03  -9.389255120659358e-01   2.926736209198081e+00   8.214099956747153e-02
2017-01-01T19:08:20.000   3.996908039173975e+04   1.295694290611034e+04  -3.498308045810345e+03  -9.410515029711370e-01   2.926047826506302e+00   8.232708233738692e-02
2017-01-01T19:08:30.000   3.995965924875272e+04   1.298619993625797e+04  -3.497483844747748e+03  -9.431769929939777e-01   2.925357887793088e+00   8.251312131131307e-02
2017-01-01T19:08:40.000   3.995021685355574e+04   1.301545005867837e+04  -3.496657783530655e+03  -9.453019809825760e-01   2.924666393433067e+00   8.269911638842210e-02
2017-01-01T19:08:50.000   3.994075321107722e+04   1.304469325811879e+04  -3.495829862589987e+03  -9.474264658290079e-01   2.923973343787481e+00   8.288506747173330e-02
2017-01-01T19:09:00.000   3.993126832627977e+04   1.307392951925865e+04  -3.495000082359665e+03  -9.495504464204200e-01   2.923278739220091e+00   8.307097446383463e-02
2017-01-01T19:09:10.000   3.992176220410450e+04   1.310315882688331e+04  -3.494168443271727e+03  -9.516739216516573e-01   2.922582580093076e+00   8.325683726798783e-02
2017-01-01T19:09:20.000   3.991223484962046e+04   1.313238116541655e+04  -3.493334945769402e+03  -9.537968903912988e-01   2.921884866777978e+00   8.344265578515539e-02
2017-01-01T19:09:30.000   3.990268626790160e+04   1.316159651930655e+04  -3.492499590296351e+03  -9.559193515096934e-01   2.921185599646708e+00   8.362842991645514e-02
2017-01-01T19:09:40.000   3.989311646405420e+04   1.319080487293970e+04  -3.491662377299067e+03  -9.580413038727031e-01   2.920484779073538e+00   8.381415956261160e-02
2017-01-01T19:09:50.000   3.988352544321084e+04   1.322000621066445e+04  -3.490823307226338e+03  -9.601627463434352e-01   2.919782405434666e+00   8.399984462410842e-02
2017-01-01T19:10:00.000   3.987391321051949e+04   1.324920051682003e+04  -3.489982380528299e+03  -9.622836777843278e-01   2.919078479107412e+00   8.418548500137055e-02
2017-01-01T19:10:10.000   3.986427977114022e+04   1.327838777574703e+04  -3.489139597656153e+03  -9.644040970579160e-01   2.918373000469990e+00   8.437108059483160e-02
2017-01-01T19:10:20.000   3.985462513021155e+04   1.330756797189200e+04  -3.488294959059209e+03  -9.665240030344363e-01   2.917665969899030e+00   8.455663130559894e-02
2017-01-01T19:10:30.000   3.984494929287243e+04   1.333674108973761e+04  -3.487448465186817e+03  -9.686433945867485e-01   2.916957387771191e+00   8.474213703500963e-02
2017-01-01T19:10:40.000   3.983525226426244e+04   1.336590711380269e+04  -3.486600116488385e+03  -9.707622705903404e-01   2.916247254463181e+00   8.492759768463076e-02
2017-01-01T19:10:50.000   3.982553404949793e+04   1.339506602871153e+04  -3.485749913411284e+03  -9.728806299283622e-01   2.915535570350003e+00   8.511301315669995e-02
2017-01-01T19:11:00.000   3.981579465370722e+04   1.342421781908977e+04  -3.484897856403936e+03  -9.749984714840622e-01   2.914822335807536e+00   8.529838335346344e-02
2017-01-01T19:11:10.000   3.980603408203428e+04   1.345336246955397e+04  -3.484043945916137e+03  -9.771157941400295e-01   2.914107551212809e+00   8.548370817710972e-02
2017-01-01T19:11:20.000   3.979625233964717e+04   1.348249996468210e+04  -3.483188182399781e+03  -9.792325967760511e-01   2.913391216944607e+00   8.566898752958203e-02
2017-01-01T19:11:30.000   3.978644943174742e+04   1.351163028899086e+04  -3.482330566309701e+03  -9.813488782674644e-01   2.912673333384173e+00   8.585422131243393e-02
2017-01-01T19:11:40.000   3.977662536354055e+04   1.354075342702111e+04  -3.481471098101074e+03  -9.834646374913592e-01   2.911953900913035e+00   8.603940942737252e-02
2017-01-01T19:11:50.000   3.976678014036761e+04   1.356986936295480e+04  -3.480609778240934e+03  -9.855798732987563e-01   2.911232919922649e+00   8.622455177382297e-02
2017-01-01T19:12:00.000   3.975691376754624e+04   1.359897808107940e+04  -3.479746607194273e+03  -9.876945845483380e-01   2.910510390802753e+00   8.640964825188113e-02
2017-01-01T19:12:10.000   3.974702625042955e+04   1.362807956561507e+04  -3.478881585429174e+03  -9.898087700939011e-01   2.909786313945681e+00   8.659469876121503e-02
2017-01-01T19:12:20.000   3.973711759417888e+04   1.365717380138420e+04  -3.478014713396961e+03  -9.919224288329928e-01   2.909060689729730e+00   8.677970320532209e-02
2017-01-01T19:12:30.000   3.972718780399027e+04   1.368626077314353e+04  -3.477145991551984e+03  -9.940355596583923e-01   2.908333518535730e+00   8.696466148728248e-02
2017-01-01T19:12:40.000   3.971723688504353e+04   1.371534046573567e+04  -3.476275420347171e+03  -9.961481614691161e-01   2.907604800743324e+00   8.714957351072213e-02
2017-01-01T19:12:50.000   3.970726484262820e+04   1.374441286371143e+04  -3.475403000245057e+03  -9.982602331429844e-01   2.906874536740189e+00   8.733443917741171e-02
2017-01-01T19:13:00.000   3.969727168205084e+04   1.377347795161049e+04  -3.474528731709663e+03  -1.000371773557009e+00   2.906142726915246e+00   8.751925838905109e-02
2017-01-01T19:13:10.000   3.968725740863386e+04   1.380253571396104e+04  -3.473652615206400e+03  -1.002482781587365e+00   2.905409371658582e+00   8.770403104726689e-02
2017-01-01T19:13:20.000   3.967722202781464e+04   1.383158613500129e+04  -3.472774651210734e+03  -1.004593256089166e+00   2.904674471368696e+00   8.788875705184214e-02
2017-01-01T19:13:30.000   3.966716554501313e+04   1.386062919905496e+04  -3.471894840196610e+03  -1.006703195923734e+00   2.903938026442815e+00   8.807343630310338e-02
2017-01-01T19:13:40.000   3.965708796568370e+04   1.388966489038321e+04  -3.471013182640979e+03  -1.008812599947851e+00   2.903200037280679e+00   8.825806870097949e-02
2017-01-01T19:13:50.000   3.964698929508770e+04   1.391869319384000e+04  -3.470129679003920e+03  -1.010921467061361e+00   2.902460504267901e+00   8.844265414916871e-02
2017-01-01T19:14:00.000   3.963686953852076e+04   1.394771409421667e+04  -3.469244329748493e+03  -1.013029796159565e+00   2.901719427792595e+00   8.862719255097140e-02
2017-01-01T19:14:10.000   3.962672870126165e+04   1.397672757639031e+04  -3.468357135336295e+03  -1.015137586143989e+00   2.900976808241646e+00   8.881168381023294e-02
2017-01-01T19:14:20.000   3.961656678870078e+04   1.400573362494696e+04  -3.467468096238690e+03  -1.017244835895018e+00   2.900232646010110e+00   8.899612782894807e-02
2017-01-01T19:14:30.000   3.960638380624566e+04   1.403473222446165e+04  -3.466577212928536e+03  -1.019351544292237e+00   2.899486941494295e+00   8.918052450904154e-02
2017-01-01T19:14:40.000   3.959617975931973e+04   1.406372335949800e+04  -3.465684485880083e+03  -1.021457710214402e+00   2.898739695091678e+00   8.936487375236547e-02
2017-01-01T19:14:50.000   3.958595465346332e+04   1.409270701433042e+04  -3.464789915577813e+03  -1.023563332519261e+00   2.897990907208289e+00   8.954917545893315e-02
